NORAD_CAT_ID,OBJECT_NAME,OBJECT_TYPE,EPOCH,MEAN_MOTION,ECCENTRICITY,INCLINATION,RA_OF_ASC_NODE,ARG_OF_PERICENTER,MEAN_ANOMALY,BSTAR,MEAN_MOTION_DOT,MEAN_MOTION_DDOT,TLE_LINE0,TLE_LINE1,TLE_LINE2,SEMIMAJOR_AXIS,PERIOD,APOGEE,PERIGEE,DECAYED
53930.0,STARLINK-5010,PAYLOAD,2024-02-17 18:11:19,15.08836561,0.0001424,53.2156,74.9267,86.1356,273.9799,3.9186e-05,3.36e-06,0.0,0 STARLINK-5010,1 53930U 22119AW  24048.75786720  .00000336  00000-0  39186-4 0  9998,2 53930  53.2156  74.9267 0001424  86.1356 273.9799 15.08836561 78609,6917.891,95.438,540.741,538.771,0.0
53930.0,STARLINK-5010,PAYLOAD,2024-02-18 02:08:15,15.08836621,0.0001484,53.2164,73.4405,84.2496,275.8665,4.7633e-05,4.7e-06,0.0,0 STARLINK-5010,1 53930U 22119AW  24049.08906804  .00000470  00000-0  47633-4 0  9997,2 53930  53.2164  73.4405 0001484  84.2496 275.8665 15.08836621 78235,6917.891,95.438,540.782,538.729,0.0
53930.0,STARLINK-5010,PAYLOAD,2024-02-18 08:29:47,15.0884425,0.0001643,53.218,72.2527,89.5277,270.5904,0.00011227,1.499e-05,0.0,0 STARLINK-5010,1 53930U 22119AW  24049.35402142  .00001499  00000-0  11227-3 0  9994,2 53930  53.2180  72.2527 0001643  89.5277 270.5904 15.08844250 78276,6917.867,95.437,540.869,538.596,0.0
53930.0,STARLINK-5010,PAYLOAD,2024-02-18 18:02:06,15.08842518,0.0001547,53.2177,70.4658,88.4794,271.6375,8.4555e-06,-1.53e-06,0.0,0 STARLINK-5010,1 53930U 22119AW  24049.75146417 -.00000153  00000-0  84555-5 0  9991,2 53930  53.2177  70.4658 0001547  88.4794 271.6375 15.08842518 78754,6917.873,95.437,540.808,538.667,0.0
53930.0,STARLINK-5010,PAYLOAD,2024-02-19 01:59:02,15.08834273,0.0001745,53.219,68.9823,97.5152,262.6038,3.7569e-05,3.1e-06,0.0,0 STARLINK-5010,1 53930U 22119AW  24050.08267064  .00000310  00000-0  37569-4 0  9997,2 53930  53.2190  68.9823 0001745  97.5152 262.6038 15.08834273 78388,6917.898,95.438,540.97,538.556,0.0
53930.0,STARLINK-5010,PAYLOAD,2024-02-19 08:20:35,15.08834167,0.0001663,53.2187,67.7927,99.2981,260.8199,2.6208e-05,1.29e-06,0.0,0 STARLINK-5010,1 53930U 22119AW  24050.34763148  .00000129  00000-0  26208-4 0  9996,2 53930  53.2187  67.7927 0001663  99.2981 260.8199 15.08834167 78845,6917.898,95.438,540.914,538.613,0.0
53930.0,STARLINK-5010,PAYLOAD,2024-02-19 17:52:54,15.08834873,0.0001444,53.2171,66.0067,93.0244,267.0913,5.4148e-06,-2.02e-06,0.0,0 STARLINK-5010,1 53930U 22119AW  24050.74507244 -.00000202  00000-0  54148-5 0  9991,2 53930  53.2171  66.0067 0001444  93.0244 267.0913 15.08834873 78900,6917.896,95.438,540.76,538.762,0.0
53930.0,STARLINK-5010,PAYLOAD,2024-02-20 08:11:22,15.08840829,0.0001525,53.2178,63.3309,98.2919,261.8246,-2.3434e-05,-6.61e-06,0.0,0 STARLINK-5010,1 53930U 22119AW  24051.34123115 -.00000661  00000-0 -23434-4 0  9992,2 53930  53.2178  63.3309 0001525  98.2919 261.8246 15.08840829 78574,6917.878,95.438,540.798,538.688,0.0
53930.0,STARLINK-5010,PAYLOAD,2024-02-20 17:43:40,15.08846297,0.0001485,53.2178,61.5458,89.4676,270.6486,-1.7231e-05,-5.62e-06,0.0,0 STARLINK-5010,1 53930U 22119AW  24051.73866714 -.00000562  00000-0 -17231-4 0  9992,2 53930  53.2178  61.5458 0001485  89.4676 270.6486 15.08846297 79059,6917.861,95.437,540.753,538.699,0.0
53930.0,STARLINK-5010,PAYLOAD,2024-02-21 08:02:09,15.08840299,0.0001509,53.218,58.8687,90.434,269.6825,6.5544e-05,7.55e-06,0.0,0 STARLINK-5010,1 53930U 22119AW  24052.33482974  .00000755  00000-0  65544-4 0  9993,2 53930  53.2180  58.8687 0001509  90.4340 269.6825 15.08840299 79143,6917.879,95.438,540.788,538.701,0.0
53930.0,STARLINK-5010,PAYLOAD,2024-02-21 17:34:28,15.08836534,0.0001393,53.2177,57.0819,79.6834,280.4315,2.505e-05,1.11e-06,0.0,0 STARLINK-5010,1 53930U 22119AW  24052.73227303  .00000111  00000-0  25050-4 0  9994,2 53930  53.2177  57.0819 0001393  79.6834 280.4315 15.08836534 78786,6917.891,95.438,540.72,538.792,0.0
53930.0,STARLINK-5010,PAYLOAD,2024-02-22 09:28:19,15.0884186,0.0001438,53.2174,54.1073,109.6159,250.4988,4.2354e-06,-2.21e-06,0.0,0 STARLINK-5010,1 53930U 22119AW  24053.39467128 -.00000221  00000-0  42354-5 0  9998,2 53930  53.2174  54.1073 0001438 109.6159 250.4988 15.08841860 79307,6917.875,95.437,540.734,538.745,0.0
53930.0,STARLINK-5010,PAYLOAD,2024-02-22 17:25:15,15.08842234,0.0001478,53.2183,52.621,88.414,271.7022,3.4643e-05,2.63e-06,0.0,0 STARLINK-5010,1 53930U 22119AW  24053.72587077  .00000263  00000-0  34643-4 0  9997,2 53930  53.2183  52.6210 0001478  88.4140 271.7022 15.08842234 79357,6917.874,95.437,540.761,538.716,0.0
53930.0,STARLINK-5010,PAYLOAD,2024-02-23 06:08:19,15.088487,0.0001471,53.2176,50.2419,88.8977,271.2184,3.8493e-05,3.25e-06,0.0,0 STARLINK-5010,1 53930U 22119AW  24054.25578561  .00000325  00000-0  38493-4 0  9990,2 53930  53.2176  50.2419 0001471  88.8977 271.2184 15.08848700 79010,6917.854,95.437,540.736,538.701,0.0
53930.0,STARLINK-5010,PAYLOAD,2024-02-23 17:16:01,15.08847709,0.0001427,53.2173,48.1615,87.4799,272.6357,4.2979e-05,3.96e-06,0.0,0 STARLINK-5010,1 53930U 22119AW  24054.71946422  .00000396  00000-0  42979-4 0  9998,2 53930  53.2173  48.1615 0001427  87.4799 272.6357 15.08847709 79508,6917.857,95.437,540.709,538.735,0.0
53930.0,STARLINK-5010,PAYLOAD,2024-02-24 04:23:44,15.08832897,0.0001518,53.2194,46.0798,93.2814,266.8352,2.1371e-05,5.2e-07,0.0,0 STARLINK-5010,1 53930U 22119AW  24055.18315510  .00000052  00000-0  21371-4 0  9990,2 53930  53.2194  46.0798 0001518  93.2814 266.8352 15.08832897 79157,6917.902,95.438,540.817,538.717,0.0
53930.0,STARLINK-5010,PAYLOAD,2024-02-24 09:09:53,15.08831617,0.0001586,53.2194,45.1867,102.6608,257.4561,9.6377e-05,1.246e-05,0.0,0 STARLINK-5010,1 53930U 22119AW  24055.38187344  .00001246  00000-0  96377-4 0  9998,2 53930  53.2194  45.1867 0001586 102.6608 257.4561 15.08831617 79602,6917.906,95.438,540.868,538.674,0.0
53930.0,STARLINK-5010,PAYLOAD,2024-02-25 04:14:31,15.08838076,0.0001673,53.2187,41.6199,98.4689,261.6493,-5.3282e-05,-1.136e-05,0.0,0 STARLINK-5010,1 53930U 22119AW  24056.17675564 -.00001136  00000-0 -53282-4 0  9990,2 53930  53.2187  41.6199 0001673  98.4689 261.6493 15.08838076 79721,6917.886,95.438,540.909,538.594,0.0
53930.0,STARLINK-5010,PAYLOAD,2024-02-25 15:22:13,15.0884568,0.0001668,53.219,39.5387,109.7744,250.3428,-4.9192e-05,-1.071e-05,0.0,0 STARLINK-5010,1 53930U 22119AW  24056.64042971 -.00001071  00000-0 -49192-4 0  9995,2 53930  53.2190  39.5387 0001668 109.7744 250.3428 15.08845680 79375,6917.863,95.437,540.882,538.574,0.0
53930.0,STARLINK-5010,PAYLOAD,2024-02-25 23:19:09,15.08830708,0.0001531,53.2201,38.051,104.8097,255.3065,9.0642e-05,1.155e-05,0.0,0 STARLINK-5010,1 53930U 22119AW  24056.97163531  .00001155  00000-0  90642-4 0  9994,2 53930  53.2201  38.0510 0001531 104.8097 255.3065 15.08830708 79845,6917.909,95.438,540.833,538.715,0.0
53930.0,STARLINK-5010,PAYLOAD,2024-02-26 05:40:41,15.0884135,0.0001682,53.2199,36.8648,100.6578,259.4604,6.314e-05,7.17e-06,0.0,0 STARLINK-5010,1 53930U 22119AW  24057.23659113  .00000717  00000-0  63140-4 0  9996,2 53930  53.2199  36.8648 0001682 100.6578 259.4604 15.08841350 79887,6917.876,95.437,540.905,538.578,0.0
53930.0,STARLINK-5010,PAYLOAD,2024-02-26 18:23:47,15.08832567,0.0001646,53.2189,34.4865,103.9699,256.1476,5.8295e-05,6.4e-06,0.0,0 STARLINK-5010,1 53930U 22119AW  24057.76651733  .00000640  00000-0  58295-4 0  9994,2 53930  53.2189  34.4865 0001646 103.9699 256.1476 15.08832567 79545,6917.903,95.438,540.907,538.629,0.0
53930.0,STARLINK-5010,PAYLOAD,2024-02-27 03:56:06,15.08815246,0.0001658,53.2194,32.7041,102.857,257.2608,0.00010461,1.376e-05,0.0,0 STARLINK-5010,1 53930U 22119AW  24058.16396844  .00001376  00000-0  10461-3 0  9997,2 53930  53.2194  32.7041 0001658 102.8570 257.2608 15.08815246 79608,6917.956,95.439,540.968,538.674,0.0
53930.0,STARLINK-5010,PAYLOAD,2024-02-27 15:03:48,15.0883461,0.0001625,53.2195,30.6225,96.7868,263.3309,9.3006e-06,-1.4e-06,0.0,0 STARLINK-5010,1 53930U 22119AW  24058.62764285 -.00000140  00000-0  93006-5 0  9993,2 53930  53.2195  30.6225 0001625  96.7868 263.3309 15.08834610 79674,6917.897,95.438,540.886,538.638,0.0
53930.0,STARLINK-5010,PAYLOAD,2024-02-28 03:46:52,15.08845239,0.0001439,53.2181,28.2396,91.3571,268.7586,3.134e-05,2.11e-06,0.0,0 STARLINK-5010,1 53930U 22119AW  24059.15755559  .00000211  00000-0  31340-4 0  9996,2 53930  53.2181  28.2396 0001439  91.3571 268.7586 15.08845239 79750,6917.864,95.437,540.725,538.734,0.0
53930.0,STARLINK-5010,PAYLOAD,2024-02-28 05:22:15,15.08845157,0.0001395,53.2177,27.9415,84.7604,275.3548,4.5994e-05,4.44e-06,0.0,0 STARLINK-5010,1 53930U 22119AW  24059.22379515  .00000444  00000-0  45994-4 0  9996,2 53930  53.2177  27.9415 0001395  84.7604 275.3548 15.08845157 80187,6917.865,95.437,540.695,538.765,0.0
53930.0,STARLINK-5010,PAYLOAD,2024-02-28 14:54:34,15.0884698,0.0001483,53.2186,26.1597,107.3604,252.755,4.5478e-06,-2.16e-06,0.0,0 STARLINK-5010,1 53930U 22119AW  24059.62123345 -.00000216  00000-0  45478-5 0  9994,2 53930  53.2186  26.1597 0001483 107.3604 252.7550 15.08846980 80243,6917.859,95.437,540.75,538.698,0.0
53930.0,STARLINK-5010,PAYLOAD,2024-02-29 03:37:40,15.08834551,0.0001536,53.2186,23.7807,91.9087,268.2081,0.00010911,1.449e-05,0.0,0 STARLINK-5010,1 53930U 22119AW  24060.15116034  .00001449  00000-0  10911-3 0  9991,2 53930  53.2186  23.7807 0001536  91.9087 268.2081 15.08834551 79905,6917.897,95.438,540.825,538.699,0.0
53930.0,STARLINK-5010,PAYLOAD,2024-02-29 06:48:26,15.08843,0.0001572,53.219,23.181,89.7427,270.3745,9.9781e-05,1.3e-05,0.0,0 STARLINK-5010,1 53930U 22119AW  24060.28363544  .00001300  00000-0  99781-4 0  9994,2 53930  53.2190  23.1810 0001572  89.7427 270.3745 15.08843000 79923,6917.871,95.437,540.824,538.649,0.0
53930.0,STARLINK-5010,PAYLOAD,2024-02-29 14:45:22,15.08835185,0.0001512,53.219,21.6944,91.2649,268.8516,1.9929e-05,2.9e-07,0.0,0 STARLINK-5010,1 53930U 22119AW  24060.61484289  .00000029  00000-0  19929-4 0  9994,2 53930  53.2190  21.6944 0001512  91.2649 268.8516 15.08835185 80398,6917.895,95.438,540.806,538.714,0.0
